#aV2022  7  4  0  0  0.00000000     288 DD+AD WGS84 FIT  NGA
## 2217  86400.00000000   300.00000000 59764 0.0000000000000
+   32     1  2  3  4  5  6  7  8  9 10 11 12 13 14 15 16 17
+         18 19 20 21 22 23 24 25 26 27 28 29 30 31 32  0  0
+          0  0  0  0  0  0  0  0  0  0  0  0  0  0  0  0  0
+          0  0  0  0  0  0  0  0  0  0  0  0  0  0  0  0  0
+          0  0  0  0  0  0  0  0  0  0  0  0  0  0  0  0  0
++         2  2  2  2  2  2  2  2  2  2  2  2  2  2  2  2  2
++         2  2  2  2  2  2  2  2  2  2  2  2  2  2  2  0  0
++         0  0  0  0  0  0  0  0  0  0  0  0  0  0  0  0  0
++         0  0  0  0  0  0  0  0  0  0  0  0  0  0  0  0  0
++         0  0  0  0  0  0  0  0  0  0  0  0  0  0  0  0  0
%c cc cc ccc ccc cccc cccc cccc cccc ccccc ccccc ccccc ccccc
%c cc cc ccc ccc cccc cccc cccc cccc ccccc ccccc ccccc ccccc
%f  0.0000000  0.000000000  0.00000000000  0.000000000000000
%f  0.0000000  0.000000000  0.00000000000  0.000000000000000
%i    0    0    0    0      0      0      0      0         0
%i    0    0    0    0      0      0      0      0         0
/*      NGA, ST. LOUIS,MO.                                  
/*   EPHEMERIS COMPUTED FROM 2 DAYS OF DATA                 
/*   EPOCHA v7 SMOOTHER                                     
/*   G2139 IERS2010 SATIGS SATAPC                           
*  2022  7  4 16 50  0.00000000
P  1  22497.166372  14467.194489    135.741561    328.019950                    
V  1   -450.489530   1694.719382 -32112.061233     -0.076008                    
P  2  -7568.823272 -18260.568558  18316.000988   -651.926378                    
V  2  20144.654593   8959.288799  18057.080161      0.005251                    
P  3  12474.465658  13463.435878  19122.733601   -298.030874                    
V  3  -2055.220482  24394.998352 -15625.857168     -0.108088                    
P  4  18412.199716   5354.080236  18424.802702   -149.806458                    
V  4 -20368.106250  11495.665372  16934.875082      0.043727                    
P  5  -6441.128632 -24099.588457  -9078.571396    -87.912959                    
V  5   2565.891153 -11342.754402  28975.229853     -0.013923                    
P  6   7652.490543 -12509.838644  22204.566623    370.855383                    
V  6  23629.516861  14968.377527    364.671725      0.161165                    
P  7  22590.820758   2771.766292 -13675.146880    320.354769                    
V  7  13912.301652  11462.443991  24079.309903     -0.010894                    
P  8  11800.876010  10490.334418 -21441.334556    -74.830085                    
V  8 -23471.072430  13501.231807  -5980.677516     -0.016262                    
P  9  23801.037400  -4335.494387  10937.613467   -322.324470                    
V  9 -10976.281968   9051.685067  27268.425209      0.036767                    
P 10 -11493.302982  17495.939132 -16020.230165   -479.666674                    
V 10  -1126.472201 -20756.550797 -21949.034523     -0.140549                    
P 11  -5576.467249 -19013.099541  17693.560394    -11.673208                    
V 11  19262.584913  11664.800579  18576.235361      0.013670                    
P 12 -10142.564077 -17118.699950  17381.282790   -241.249049                    
V 12   3986.518677 -22232.498274 -19172.201784     -0.059022                    
P 13   -939.390185 -15514.599182 -21671.839231    342.023476                    
V 13  25665.013702  -8868.684961   5448.778412      0.070421                    
P 14  13095.321697 -15935.733485 -16675.018586   -112.017304                    
V 14    430.766374  21334.762836 -20145.292356      0.000374                    
P 15 -13196.393282 -10020.371944 -21217.352122    -48.075898                    
V 15  20983.712415 -15461.168114  -5553.136309      0.030093                    
P 16    -59.377954  25939.196371  -4697.256630   -513.327626                    
V 16  -3553.747769   5287.175536  31482.599941     -0.023756                    
P 17  22051.271901 -13983.061901   5438.802367    632.911082                    
V 17   6631.138512   -703.330922 -31123.153865      0.045631                    
P 18 -22168.097675  -2719.867350 -14477.540609    123.231211                    
V 18 -14321.724641 -11521.433366  23993.782095     -0.112295                    
P 19  16786.930245 -15877.239392  12634.365668    179.312346                    
V 19  16120.860324  -4161.293950 -26343.994115      0.050097                    
P 20   -742.586664 -26457.970634   3392.561628    505.980559                    
V 20   3610.466533   3878.171316  30839.093463     -0.031650                    
P 21  19246.896401  16560.120957  -8285.459450    161.218211                    
V 21 -10953.966054  -3209.343042 -28924.838272     -0.001079                    
P 22 -13697.031602  17293.527907  15081.309013    286.719740                    
V 22 -17797.845927   5396.873941 -23167.399995      0.064124                    
P 23 -14585.323278   6648.824812 -21169.912453    -31.370720                    
V 23   -447.050710 -26854.532437  -8237.473292     -0.018339                    
P 24 -21780.745596 -15038.747228  -4408.472887    205.372175                    
V 24   6076.704128   -443.429579 -30221.463085     -0.093812                    
P 25 -15065.968128  -2500.460126  21456.551760    345.222848                    
V 25    958.066892 -27913.283183  -2281.704793      0.045079                    
P 26  -4395.839745  25143.627705   6649.172191    216.289754                    
V 26  -3828.072383  -8584.892771  29858.675799      0.022205                    
P 27  -2168.852712  16945.945620 -20444.750987    219.642244                    
V 27 -23075.157380  11037.370291  12102.118615      0.015796                    
P 28   9261.678193 -23149.089130  -8969.661872    330.560024                    
V 28    716.613650  12229.704217 -28946.351834      0.055249                    
P 29 -24210.657010   2814.433976  10592.972116   -530.388546                    
V 29  11600.589394  -7108.719899  28188.955755     -0.036467                    
P 30  16471.156423  -6638.736411 -19732.266738   -533.186162                    
V 30  20487.986558  14849.851289  11797.478545     -0.009679                    
P 31  -5877.057043  14306.249551  21423.044688   -184.429686                    
V 31 -23317.318961 -14746.029905   3885.306950     -0.015152                    
P 32 -19725.683829  16239.990869   7029.335396   -167.658900                    
V 32  -9092.570735   1636.615131 -30113.758953     -0.097723                    
EOF
